[{"OBJECT_NAME":"BEIDOU-3 G1 (C59)","OBJECT_ID":"2018-085A","EPOCH":"2026-04-01T20:42:38.441952","MEAN_MOTION":1.00268589,"ECCENTRICITY":0.00020589,"INCLINATION":2.882,"RA_OF_ASC_NODE":99.4564,"ARG_OF_PERICENTER":12.9832,"MEAN_ANOMALY":168.3736,"EPHEMERIS_TYPE":0,"CLASSIFICATION_TYPE":"U","NORAD_CAT_ID":43683,"ELEMENT_SET_NO":999,"REV_AT_EPOCH":2729,"BSTAR":0,"MEAN_MOTION_DOT":-2.84e-6,"MEAN_MOTION_DDOT":0},{"OBJECT_NAME":"BEIDOU-3 M17 (C36)","OBJECT_ID":"2018-093A","EPOCH":"2026-04-03T04:18:11.990016","MEAN_MOTION":1.86228537,"ECCENTRICITY":0.00080741,"INCLINATION":54.1686,"RA_OF_ASC_NODE":184.8411,"ARG_OF_PERICENTER":293.4644,"MEAN_ANOMALY":95.1929,"EPHEMERIS_TYPE":0,"CLASSIFICATION_TYPE":"U","NORAD_CAT_ID":43706,"ELEMENT_SET_NO":999,"REV_AT_EPOCH":5014,"BSTAR":0,"MEAN_MOTION_DOT":1.3e-7,"MEAN_MOTION_DDOT":0},{"OBJECT_NAME":"BEIDOU-3 M18 (C37)","OBJECT_ID":"2018-093B","EPOCH":"2026-04-01T09:19:03.973152","MEAN_MOTION":1.86226571,"ECCENTRICITY":0.00064841,"INCLINATION":54.1693,"RA_OF_ASC_NODE":184.894,"ARG_OF_PERICENTER":331.1835,"MEAN_ANOMALY":28.8049,"EPHEMERIS_TYPE":0,"CLASSIFICATION_TYPE":"U","NORAD_CAT_ID":43707,"ELEMENT_SET_NO":999,"REV_AT_EPOCH":5010,"BSTAR":0,"MEAN_MOTION_DOT":-3.0e-8,"MEAN_MOTION_DDOT":0},{"OBJECT_NAME":"BEIDOU-3 IGSO-1 (C38)","OBJECT_ID":"2019-023A","EPOCH":"2026-03-31T15:38:43.399680","MEAN_MOTION":1.00262964,"ECCENTRICITY":0.00251896,"INCLINATION":58.5926,"RA_OF_ASC_NODE":38.4466,"ARG_OF_PERICENTER":236.5952,"MEAN_ANOMALY":266.8923,"EPHEMERIS_TYPE":0,"CLASSIFICATION_TYPE":"U","NORAD_CAT_ID":44204,"ELEMENT_SET_NO":999,"REV_AT_EPOCH":643,"BSTAR":0,"MEAN_MOTION_DOT":-2.26e-6,"MEAN_MOTION_DDOT":0},{"OBJECT_NAME":"BEIDOU-2 G8 (C01)","OBJECT_ID":"2019-027A","EPOCH":"2026-04-04T05:39:38.842272","MEAN_MOTION":1.00275762,"ECCENTRICITY":0.0011573,"INCLINATION":1.4715,"RA_OF_ASC_NODE":74.313,"ARG_OF_PERICENTER":276.0276,"MEAN_ANOMALY":71.6069,"EPHEMERIS_TYPE":0,"CLASSIFICATION_TYPE":"U","NORAD_CAT_ID":44231,"ELEMENT_SET_NO":999,"REV_AT_EPOCH":2533,"BSTAR":0,"MEAN_MOTION_DOT":-2.46e-6,"MEAN_MOTION_DDOT":0},{"OBJECT_NAME":"BEIDOU-3 IGSO-2 (C39)","OBJECT_ID":"2019-035A","EPOCH":"2026-03-27T19:44:54.998592","MEAN_MOTION":1.00291912,"ECCENTRICITY":0.00390451,"INCLINATION":55.2326,"RA_OF_ASC_NODE":159.578,"ARG_OF_PERICENTER":213.6954,"MEAN_ANOMALY":226.2541,"EPHEMERIS_TYPE":0,"CLASSIFICATION_TYPE":"U","NORAD_CAT_ID":44337,"ELEMENT_SET_NO":999,"REV_AT_EPOCH":2485,"BSTAR":0,"MEAN_MOTION_DOT":-1.61e-6,"MEAN_MOTION_DDOT":0},{"OBJECT_NAME":"BEIDOU-3 M24 (C46)","OBJECT_ID":"2019-061A","EPOCH":"2026-04-02T12:45:47.064672","MEAN_MOTION":1.86228823,"ECCENTRICITY":0.00081878,"INCLINATION":54.3964,"RA_OF_ASC_NODE":185.2791,"ARG_OF_PERICENTER":13.7537,"MEAN_ANOMALY":346.3,"EPHEMERIS_TYPE":0,"CLASSIFICATION_TYPE":"U","NORAD_CAT_ID":44542,"ELEMENT_SET_NO":999,"REV_AT_EPOCH":4438,"BSTAR":0,"MEAN_MOTION_DOT":9.0e-8,"MEAN_MOTION_DDOT":0},{"OBJECT_NAME":"BEIDOU-3 M23 (C45)","OBJECT_ID":"2019-061B","EPOCH":"2026-04-02T03:48:48.819168","MEAN_MOTION":1.86227494,"ECCENTRICITY":0.00048672,"INCLINATION":54.3946,"RA_OF_ASC_NODE":185.2604,"ARG_OF_PERICENTER":359.4431,"MEAN_ANOMALY":22.6796,"EPHEMERIS_TYPE":0,"CLASSIFICATION_TYPE":"U","NORAD_CAT_ID":44543,"ELEMENT_SET_NO":999,"REV_AT_EPOCH":4438,"BSTAR":0,"MEAN_MOTION_DOT":5.0e-8,"MEAN_MOTION_DDOT":0},{"OBJECT_NAME":"BEIDOU-3 IGSO-3 (C40)","OBJECT_ID":"2019-073A","EPOCH":"2026-04-02T22:08:13.473888","MEAN_MOTION":1.00260005,"ECCENTRICITY":0.00413651,"INCLINATION":54.9314,"RA_OF_ASC_NODE":281.7081,"ARG_OF_PERICENTER":188.5337,"MEAN_ANOMALY":171.3411,"EPHEMERIS_TYPE":0,"CLASSIFICATION_TYPE":"U","NORAD_CAT_ID":44709,"ELEMENT_SET_NO":999,"REV_AT_EPOCH":2370,"BSTAR":0,"MEAN_MOTION_DOT":-1.82e-6,"MEAN_MOTION_DDOT":0},{"OBJECT_NAME":"BEIDOU-3 M22 (C44)","OBJECT_ID":"2019-078A","EPOCH":"2026-04-03T23:33:28.589760","MEAN_MOTION":1.86227146,"ECCENTRICITY":0.00075463,"INCLINATION":54.0035,"RA_OF_ASC_NODE":302.4378,"ARG_OF_PERICENTER":42.801,"MEAN_ANOMALY":317.2773,"EPHEMERIS_TYPE":0,"CLASSIFICATION_TYPE":"U","NORAD_CAT_ID":44793,"ELEMENT_SET_NO":999,"REV_AT_EPOCH":4326,"BSTAR":0,"MEAN_MOTION_DOT":-6.3e-7,"MEAN_MOTION_DDOT":0},{"OBJECT_NAME":"BEIDOU-3 M21 (C43)","OBJECT_ID":"2019-078B","EPOCH":"2026-04-03T14:02:01.747680","MEAN_MOTION":1.8622766,"ECCENTRICITY":0.00053542,"INCLINATION":53.9768,"RA_OF_ASC_NODE":302.4147,"ARG_OF_PERICENTER":38.8071,"MEAN_ANOMALY":321.2518,"EPHEMERIS_TYPE":0,"CLASSIFICATION_TYPE":"U","NORAD_CAT_ID":44794,"ELEMENT_SET_NO":999,"REV_AT_EPOCH":4326,"BSTAR":0,"MEAN_MOTION_DOT":-6.3e-7,"MEAN_MOTION_DDOT":0},{"OBJECT_NAME":"BEIDOU-3 M19 (C41)","OBJECT_ID":"2019-090A","EPOCH":"2026-04-02T05:04:38.027136","MEAN_MOTION":1.86231371,"ECCENTRICITY":0.00203387,"INCLINATION":56.495,"RA_OF_ASC_NODE":65.2997,"ARG_OF_PERICENTER":293.9443,"MEAN_ANOMALY":62.1866,"EPHEMERIS_TYPE":0,"CLASSIFICATION_TYPE":"U","NORAD_CAT_ID":44864,"ELEMENT_SET_NO":999,"REV_AT_EPOCH":4281,"BSTAR":0,"MEAN_MOTION_DOT":-4.1e-7,"MEAN_MOTION_DDOT":0},{"OBJECT_NAME":"BEIDOU-3 M20 (C42)","OBJECT_ID":"2019-090B","EPOCH":"2026-04-02T08:21:02.410848","MEAN_MOTION":1.86231443,"ECCENTRICITY":0.00178331,"INCLINATION":56.4965,"RA_OF_ASC_NODE":65.3296,"ARG_OF_PERICENTER":305.7575,"MEAN_ANOMALY":231.4249,"EPHEMERIS_TYPE":0,"CLASSIFICATION_TYPE":"U","NORAD_CAT_ID":44865,"ELEMENT_SET_NO":999,"REV_AT_EPOCH":4280,"BSTAR":0,"MEAN_MOTION_DOT":-4.2e-7,"MEAN_MOTION_DDOT":0},{"OBJECT_NAME":"BEIDOU-3 G2 (C60)","OBJECT_ID":"2020-017A","EPOCH":"2026-04-04T02:53:58.812576","MEAN_MOTION":1.00272125,"ECCENTRICITY":0.00028175,"INCLINATION":2.7162,"RA_OF_ASC_NODE":46.1345,"ARG_OF_PERICENTER":334.6591,"MEAN_ANOMALY":295.1846,"EPHEMERIS_TYPE":0,"CLASSIFICATION_TYPE":"U","NORAD_CAT_ID":45344,"ELEMENT_SET_NO":999,"REV_AT_EPOCH":2251,"BSTAR":0,"MEAN_MOTION_DOT":-1.4e-6,"MEAN_MOTION_DDOT":0},{"OBJECT_NAME":"BEIDOU-3 G3 (C61)","OBJECT_ID":"2020-040A","EPOCH":"2026-04-04T01:20:00.326976","MEAN_MOTION":1.00270244,"ECCENTRICITY":0.00045043,"INCLINATION":2.2659,"RA_OF_ASC_NODE":67.223,"ARG_OF_PERICENTER":326.6647,"MEAN_ANOMALY":289.0502,"EPHEMERIS_TYPE":0,"CLASSIFICATION_TYPE":"U","NORAD_CAT_ID":45807,"ELEMENT_SET_NO":999,"REV_AT_EPOCH":2132,"BSTAR":0,"MEAN_MOTION_DOT":-3.53e-6,"MEAN_MOTION_DDOT":0},{"OBJECT_NAME":"BEIDOU-3 G4 (C62)","OBJECT_ID":"2023-066A","EPOCH":"2026-04-04T20:17:35.515680","MEAN_MOTION":1.00270926,"ECCENTRICITY":0.0002909,"INCLINATION":0.5937,"RA_OF_ASC_NODE":315.8583,"ARG_OF_PERICENTER":158.1678,"MEAN_ANOMALY":163.5882,"EPHEMERIS_TYPE":0,"CLASSIFICATION_TYPE":"U","NORAD_CAT_ID":56564,"ELEMENT_SET_NO":999,"REV_AT_EPOCH":1065,"BSTAR":0,"MEAN_MOTION_DOT":-2.81e-6,"MEAN_MOTION_DDOT":0},{"OBJECT_NAME":"BEIDOU-3 M28 (C50)","OBJECT_ID":"2023-207A","EPOCH":"2026-04-04T17:39:46.264896","MEAN_MOTION":1.86229828,"ECCENTRICITY":0.0004919,"INCLINATION":55.6901,"RA_OF_ASC_NODE":64.7795,"ARG_OF_PERICENTER":314.0672,"MEAN_ANOMALY":45.8647,"EPHEMERIS_TYPE":0,"CLASSIFICATION_TYPE":"U","NORAD_CAT_ID":58654,"ELEMENT_SET_NO":999,"REV_AT_EPOCH":1547,"BSTAR":0,"MEAN_MOTION_DOT":-4.3e-7,"MEAN_MOTION_DDOT":0}]
